0 CZ-4B DEB
1 29536U 06015C   13281.29303360  .00002679  00000-0  62731-3 0  8915
2 29536 097.7552 094.6260 0183211 128.1824 355.2876 14.45506436388879
0 CZ-4B DEB
1 29536U 06015C   13282.33084787  .00003699  00000-0  86189-3 0  8927
2 29536 097.7552 095.5754 0183200 124.9937 355.8865 14.45520125389027
0 CZ-4B DEB
1 29536U 06015C   13283.70371878  .00003505  00000-0  81719-3 0  8930
2 29536 097.7550 096.8313 0183217 120.7825 300.1161 14.45527550389221
0 CZ-4B DEB
1 29536U 06015C   13286.74875237  .00003269  00000-0  76259-3 0  8957
2 29536 097.7543 099.6167 0183223 111.4283 306.2121 14.45542719389668
0 CZ-4B DEB
1 29536U 06015C   13288.75621708  .00004092  00000-0  95157-3 0  8966
2 29536 097.7540 101.4532 0183203 105.2752 312.9836 14.45558287389959
0 CZ-4B DEB
1 29536U 06015C   13290.29137851  .00003497  00000-0  81460-3 0  8970
2 29536 097.7543 102.8579 0183165 100.5794 021.9653 14.45568552390175
0 CZ-4B DEB
1 29536U 06015C   13291.32875123  .00003109  00000-0  72523-3 0  8987
2 29536 097.7545 103.8070 0183160 097.4043 020.4891 14.45574521390328
0 CZ-4B DEB
1 29536U 06015C   13292.70208510  .00003092  00000-0  72144-3 0  8991
2 29536 097.7549 105.0634 0183143 093.1946 327.4063 14.45581850390524
0 CZ-4B DEB
1 29536U 06015C   13293.73957297  .00003213  00000-0  74908-3 0  9006
2 29536 097.7551 106.0126 0183123 090.0121 326.5862 14.45586845390675
0 CZ-4B DEB
1 29536U 06015C   13295.27502550  .00003508  00000-0  81687-3 0  9015
2 29536 097.7553 107.4175 0183094 085.3099 037.2485 14.45594546390892
